{
  "type": "FeatureCollection",
  "features": [
    {
      "type": "Feature",
      "properties": {
        "norad_id": 66422,
        "name": "STARLINK-35617",
        "group": "last-30-days",
        "lat": -27.20630603329126,
        "lon": -93.84079829611596,
        "alt_km": 445.4666889368418,
        "timestamp": "2025-12-11T22:43:46.022113+00:00",
        "meta_object_name": "STARLINK-35617",
        "meta_object_id": "2025-259A",
        "meta_epoch": "2025-12-11T12:26:06.792288",
        "meta_mean_motion": 15.40728363,
        "meta_eccentricity": 0.00015,
        "meta_inclination": 43.0017,
        "meta_ra_of_asc_node": 55.1528,
        "meta_arg_of_pericenter": 262.9042,
        "meta_mean_anomaly": 97.1644,
        "meta_ephemeris_type": 0,
        "meta_classification_type": "U",
        "meta_norad_cat_id": 66422,
        "meta_element_set_no": 999,
        "meta_rev_at_epoch": 597,
        "meta_bstar": 0.0025856411,
        "meta_mean_motion_dot": 0.00109369,
        "meta_mean_motion_ddot": 0,
        "tle_line1": "1 66422U 25259A   25345.51813417  .00109369  00000+0  25856-2 0  9997",
        "tle_line2": "2 66422  43.0017  55.1528 0001500 262.9042  97.1644 15.40728363  5975"
      },
      "geometry": {
        "type": "Point",
        "coordinates": [
          -93.84079829611596,
          -27.20630603329126
        ]
      }
    },
    {
      "type": "Feature",
      "properties": {
        "norad_id": 66423,
        "name": "STARLINK-35618",
        "group": "last-30-days",
        "lat": -33.808310931625144,
        "lon": -81.40884224095663,
        "alt_km": 446.229316503297,
        "timestamp": "2025-12-11T22:43:46.022197+00:00",
        "meta_object_name": "STARLINK-35618",
        "meta_object_id": "2025-259B",
        "meta_epoch": "2025-12-11T06:09:28.709856",
        "meta_mean_motion": 15.40759138,
        "meta_eccentricity": 7.604e-05,
        "meta_inclination": 42.9997,
        "meta_ra_of_asc_node": 56.6302,
        "meta_arg_of_pericenter": 289.5736,
        "meta_mean_anomaly": 70.5038,
        "meta_ephemeris_type": 0,
        "meta_classification_type": "U",
        "meta_norad_cat_id": 66423,
        "meta_element_set_no": 999,
        "meta_rev_at_epoch": 593,
        "meta_bstar": 0.0018297901,
        "meta_mean_motion_dot": 0.00077058,
        "meta_mean_motion_ddot": 0,
        "tle_line1": "1 66423U 25259B   25345.25658229  .00077058  00000+0  18298-2 0  9998",
        "tle_line2": "2 66423  42.9997  56.6302 0000760 289.5736  70.5038 15.40759138  5931"
      },
      "geometry": {
        "type": "Point",
        "coordinates": [
          -81.40884224095663,
          -33.808310931625144
        ]
      }
    },
    {
      "type": "Feature",
      "properties": {
        "norad_id": 66424,
        "name": "STARLINK-35588",
        "group": "last-30-days",
        "lat": -38.86323072619014,
        "lon": -67.54753060071381,
        "alt_km": 444.80084312961753,
        "timestamp": "2025-12-11T22:43:46.022216+00:00",
        "meta_object_name": "STARLINK-35588",
        "meta_object_id": "2025-259C",
        "meta_epoch": "2025-12-11T12:19:39.307296",
        "meta_mean_motion": 15.40744022,
        "meta_eccentricity": 0.00032641,
        "meta_inclination": 43.0067,
        "meta_ra_of_asc_node": 55.1173,
        "meta_arg_of_pericenter": 259.008,
        "meta_mean_anomaly": 101.041,
        "meta_ephemeris_type": 0,
        "meta_classification_type": "U",
        "meta_norad_cat_id": 66424,
        "meta_element_set_no": 999,
        "meta_rev_at_epoch": 597,
        "meta_bstar": 0.0015112714,
        "meta_mean_motion_dot": 0.00063452,
        "meta_mean_motion_ddot": 0,
        "tle_line1": "1 66424U 25259C   25345.51364939  .00063452  00000+0  15113-2 0  9996",
        "tle_line2": "2 66424  43.0067  55.1173 0003264 259.0080 101.0410 15.40744022  5972"
      },
      "geometry": {
        "type": "Point",
        "coordinates": [
          -67.54753060071381,
          -38.86323072619014
        ]
      }
    },
    {
      "type": "Feature",
      "properties": {
        "norad_id": 66425,
        "name": "STARLINK-35555",
        "group": "last-30-days",
        "lat": -42.063374821090136,
        "lon": -51.858977715581446,
        "alt_km": 446.2927097502961,
        "timestamp": "2025-12-11T22:43:46.022229+00:00",
        "meta_object_name": "STARLINK-35555",
        "meta_object_id": "2025-259D",
        "meta_epoch": "2025-12-11T13:49:47.434080",
        "meta_mean_motion": 15.40722858,
        "meta_eccentricity": 0.0001505,
        "meta_inclination": 43.0011,
        "meta_ra_of_asc_node": 54.7288,
        "meta_arg_of_pericenter": 285.8052,
        "meta_mean_anomaly": 74.2638,
        "meta_ephemeris_type": 0,
        "meta_classification_type": "U",
        "meta_norad_cat_id": 66425,
        "meta_element_set_no": 999,
        "meta_rev_at_epoch": 598,
        "meta_bstar": 0.0013302793,
        "meta_mean_motion_dot": 0.00055715,
        "meta_mean_motion_ddot": 0,
        "tle_line1": "1 66425U 25259D   25345.57624345  .00055715  00000+0  13303-2 0  9995",
        "tle_line2": "2 66425  43.0011  54.7288 0001505 285.8052  74.2638 15.40722858  5983"
      },
      "geometry": {
        "type": "Point",
        "coordinates": [
          -51.858977715581446,
          -42.063374821090136
        ]
      }
    },
    {
      "type": "Feature",
      "properties": {
        "norad_id": 66426,
        "name": "STARLINK-35589",
        "group": "last-30-days",
        "lat": -42.95860778471103,
        "lon": -35.01669546544159,
        "alt_km": 445.366551492697,
        "timestamp": "2025-12-11T22:43:46.022256+00:00",
        "meta_object_name": "STARLINK-35589",
        "meta_object_id": "2025-259E",
        "meta_epoch": "2025-12-11T13:46:33.491136",
        "meta_mean_motion": 15.40728589,
        "meta_eccentricity": 0.00026765,
        "meta_inclination": 43.0045,
        "meta_ra_of_asc_node": 54.7078,
        "meta_arg_of_pericenter": 276.4761,
        "meta_mean_anomaly": 83.579,
        "meta_ephemeris_type": 0,
        "meta_classification_type": "U",
        "meta_norad_cat_id": 66426,
        "meta_element_set_no": 999,
        "meta_rev_at_epoch": 598,
        "meta_bstar": 0.0016972277,
        "meta_mean_motion_dot": 0.00071331,
        "meta_mean_motion_ddot": 0,
        "tle_line1": "1 66426U 25259E   25345.57399874  .00071331  00000+0  16972-2 0  9999",
        "tle_line2": "2 66426  43.0045  54.7078 0002676 276.4761  83.5790 15.40728589  5980"
      },
      "geometry": {
        "type": "Point",
        "coordinates": [
          -35.01669546544159,
          -42.95860778471103
        ]
      }
    },
    {
      "type": "Feature",
      "properties": {
        "norad_id": 66427,
        "name": "STARLINK-35611",
        "group": "last-30-days",
        "lat": -41.36140555879842,
        "lon": -18.359943780345592,
        "alt_km": 446.17499227891403,
        "timestamp": "2025-12-11T22:43:46.022269+00:00",
        "meta_object_name": "STARLINK-35611",
        "meta_object_id": "2025-259F",
        "meta_epoch": "2025-12-11T12:10:00.031584",
        "meta_mean_motion": 15.40760964,
        "meta_eccentricity": 0.00012715,
        "meta_inclination": 42.998,
        "meta_ra_of_asc_node": 55.0641,
        "meta_arg_of_pericenter": 253.1219,
        "meta_mean_anomaly": 106.9498,
        "meta_ephemeris_type": 0,
        "meta_classification_type": "U",
        "meta_norad_cat_id": 66427,
        "meta_element_set_no": 999,
        "meta_rev_at_epoch": 597,
        "meta_bstar": 0.0021388162,
        "meta_mean_motion_dot": 0.00090287,
        "meta_mean_motion_ddot": 0,
        "tle_line1": "1 66427U 25259F   25345.50694481  .00090287  00000+0  21388-2 0  9993",
        "tle_line2": "2 66427  42.9980  55.0641 0001271 253.1219 106.9498 15.40760964  5974"
      },
      "geometry": {
        "type": "Point",
        "coordinates": [
          -18.359943780345592,
          -41.36140555879842
        ]
      }
    },
    {
      "type": "Feature",
      "properties": {
        "norad_id": 66428,
        "name": "STARLINK-35610",
        "group": "last-30-days",
        "lat": -37.558601716428285,
        "lon": -3.0864423698946877,
        "alt_km": 445.4245207688982,
        "timestamp": "2025-12-11T22:43:46.022281+00:00",
        "meta_object_name": "STARLINK-35610",
        "meta_object_id": "2025-259G",
        "meta_epoch": "2025-12-11T12:06:45.588384",
        "meta_mean_motion": 15.40713186,
        "meta_eccentricity": 0.00023981,
        "meta_inclination": 43.008,
        "meta_ra_of_asc_node": 55.0472,
        "meta_arg_of_pericenter": 269.2664,
        "meta_mean_anomaly": 90.7917,
        "meta_ephemeris_type": 0,
        "meta_classification_type": "U",
        "meta_norad_cat_id": 66428,
        "meta_element_set_no": 999,
        "meta_rev_at_epoch": 597,
        "meta_bstar": 0.0020983531,
        "meta_mean_motion_dot": 0.00088413,
        "meta_mean_motion_ddot": 0,
        "tle_line1": "1 66428U 25259G   25345.50469431  .00088413  00000+0  20984-2 0  9998",
        "tle_line2": "2 66428  43.0080  55.0472 0002398 269.2664  90.7917 15.40713186  5973"
      },
      "geometry": {
        "type": "Point",
        "coordinates": [
          -3.0864423698946877,
          -37.558601716428285
        ]
      }
    }
  ]
}